OBJECT_NAME,OBJECT_ID,EPOCH,MEAN_MOTION,ECCENTRICITY,INCLINATION,RA_OF_ASC_NODE,ARG_OF_PERICENTER,MEAN_ANOMALY,EPHEMERIS_TYPE,CLASSIFICATION_TYPE,NORAD_CAT_ID,ELEMENT_SET_NO,REV_AT_EPOCH,BSTAR,MEAN_MOTION_DOT,MEAN_MOTION_DDOT
STARLINK-37679,2026-115U,2026-06-10T13:49:02.042976,15.76772730,.00008534,97.2827,178.7066,136.1415,223.9919,0,U,69229,999,364,-.7365159E-2,-.106043E-1,0
STARLINK-37746,2026-115V,2026-06-10T14:00:01.999872,15.74479854,.00014208,97.2841,178.7074,99.4748,288.0726,0,U,69230,999,363,-.18509528E-1,-.2318399E-1,0
STARLINK-37557,2026-115W,2026-06-09T11:55:36.795360,15.80870270,.00037506,97.2834,177.5728,332.0612,28.0454,0,U,69231,999,347,.22562327E-2,.456594E-2,0
STARLINK-37745,2026-115X,2026-06-10T13:39:00.480384,15.80859054,.00012913,97.2826,178.7167,86.3710,273.7705,0,U,69232,999,364,.72353241E-3,.140987E-2,0
STARLINK-37739,2026-115Y,2026-06-10T14:00:01.999872,15.71117669,.00012965,97.2841,178.7051,70.5643,311.3971,0,U,69233,999,363,-.23784932E-1,-.2598551E-1,0
STARLINK-37755,2026-115Z,2026-06-10T14:07:25.752864,15.75207090,.00014907,97.2844,178.6901,96.7040,263.4395,0,U,69234,999,364,.67144752E-3,.101292E-2,0
STARLINK-37665,2026-117A,2026-06-10T14:00:01.999872,15.81925819,.00010634,53.1589,276.7733,47.7056,148.8588,0,U,69238,999,311,.57206861E-3,.119491E-2,0
STARLINK-37558,2026-117B,2026-06-10T14:00:01.999872,15.81937193,.00009604,53.1589,276.7624,94.0942,107.8840,0,U,69239,999,311,.53703357E-3,.112092E-2,0
STARLINK-37680,2026-117C,2026-06-10T14:00:01.999872,15.81929835,.00011367,53.1590,276.7449,65.4824,144.7013,0,U,69240,999,310,.58674734E-3,.122643E-2,0
STARLINK-37742,2026-117D,2026-06-10T14:00:01.999872,15.81927258,.00010099,53.1593,276.7244,82.3239,138.0279,0,U,69241,999,311,.55847206E-3,.116602E-2,0
STARLINK-37718,2026-117E,2026-06-10T14:00:01.999872,15.81918598,.00010821,53.1594,276.7094,98.3661,129.0218,0,U,69242,999,310,.65800113E-3,.137793E-2,0
STARLINK-37735,2026-117F,2026-06-10T14:00:01.999872,15.81938206,.00011507,53.1592,276.7080,70.1843,157.8046,0,U,69243,999,311,.47784233E-3,.99518E-3,0
STARLINK-37757,2026-117G,2026-06-10T14:00:01.999872,15.81949503,.00008876,53.1591,276.6800,50.9794,190.6556,0,U,69244,999,311,.25370625E-3,.52242E-3,0
STARLINK-37767,2026-117H,2026-06-10T14:00:01.999872,15.81936360,.00012067,53.1587,276.6289,80.0463,185.8953,0,U,69245,999,311,.43591807E-3,.90623E-3,0
STARLINK-35759,2026-117J,2026-06-10T14:00:01.999872,15.82010314,.00010236,53.1588,276.6209,77.4810,192.3030,0,U,69246,999,316,.42542765E-4,.8148E-4,0
STARLINK-37238,2026-117K,2026-06-10T14:00:01.999872,15.81936590,.00011404,53.1585,276.5678,68.4306,226.7217,0,U,69247,999,311,.45153084E-3,.93931E-3,0
STARLINK-37412,2026-117L,2026-06-10T14:00:01.999872,15.81924906,.00011467,53.1585,276.5283,96.3821,217.9752,0,U,69248,999,318,.55322239E-3,.115472E-2,0
STARLINK-37398,2026-117M,2026-06-10T14:00:01.999872,15.80925002,.00009084,53.1591,276.5241,71.6638,244.6209,0,U,69249,999,318,-.44962004E-3,-.88743E-3,0
STARLINK-37499,2026-117N,2026-06-10T14:00:01.999872,15.81939799,.00011091,53.1586,276.5074,74.4515,249.6890,0,U,69250,999,318,.37729574E-3,.78239E-3,0
STARLINK-37489,2026-117P,2026-06-10T14:00:01.999872,15.81949903,.00005321,53.1590,276.4867,68.5566,265.6032,0,U,69251,999,318,.34170865E-3,.70764E-3,0
STARLINK-37434,2026-117Q,2026-06-10T14:00:01.999872,15.81964567,.00011231,53.1588,276.4512,72.8981,278.1919,0,U,69252,999,311,.14893669E-3,.30318E-3,0
STARLINK-37368,2026-117R,2026-06-10T14:00:01.999872,15.81996204,.00007775,53.1587,276.3716,43.7491,345.7518,0,U,69253,999,318,-.32587312E-4,-.7481E-4,0
STARLINK-37517,2026-117S,2026-06-10T14:00:01.999872,15.81967514,.00012623,53.1585,276.3563,62.6798,334.3442,0,U,69254,999,318,.34760247E-3,.72068E-3,0
STARLINK-37378,2026-117T,2026-06-10T14:00:01.999872,15.81994443,.00007671,53.1588,276.3524,44.5763,354.3246,0,U,69255,999,310,.80386028E-4,.16032E-3,0
STARLINK-37396,2026-117U,2026-06-10T14:00:01.999872,15.81977169,.00007649,53.1581,276.3225,54.2827,358.5945,0,U,69256,999,318,.15913401E-3,.3247E-3,0
STARLINK-37508,2026-117V,2026-06-10T14:00:01.999872,15.82374108,.00007757,53.1580,276.2945,76.1275,350.0256,0,U,69257,999,310,-.92677681E-2,-.1699994E-1,0
STARLINK-37276,2026-117W,2026-06-10T14:00:01.999872,15.88516453,.00013112,53.1551,276.0577,64.8331,115.2125,0,U,69258,999,310,-.18564201E-2,-.50101E-2,0
STARLINK-37518,2026-117X,2026-06-10T14:00:01.999872,15.88513364,.00010652,53.1550,276.0440,67.0223,120.0441,0,U,69259,999,311,-.73458066E-2,-.1803808E-1,0
