STARLINK-37679          
1 69229U 26115U   26161.57571809 -.01060430  00000+0 -73652-2 0  9991
2 69229  97.2827 178.7066 0000853 136.1415 223.9919 15.76772730  3640
STARLINK-37746          
1 69230U 26115V   26161.58335648 -.02318399  00000+0 -18510-1 0  9995
2 69230  97.2841 178.7074 0001420  99.4748 288.0726 15.74479854  3634
STARLINK-37557          
1 69231U 26115W   26160.49695365  .00456594  00000+0  22562-2 0  9999
2 69231  97.2834 177.5728 0003750 332.0612  28.0454 15.80870270  3470
STARLINK-37745          
1 69232U 26115X   26161.56875556  .00140987  00000+0  72353-3 0  9991
2 69232  97.2826 178.7167 0001291  86.3710 273.7705 15.80859054  3642
STARLINK-37739          
1 69233U 26115Y   26161.58335648 -.02598551  00000+0 -23785-1 0  9998
2 69233  97.2841 178.7051 0001296  70.5643 311.3971 15.71117669  3639
STARLINK-37755          
1 69234U 26115Z   26161.58849251  .00101292  00000+0  67145-3 0  9997
2 69234  97.2844 178.6901 0001490  96.7040 263.4395 15.75207090  3643
STARLINK-37665          
1 69238U 26117A   26161.58335648  .00119491  00000+0  57207-3 0  9991
2 69238  53.1589 276.7733 0001063  47.7056 148.8588 15.81925819  3111
STARLINK-37558          
1 69239U 26117B   26161.58335648  .00112092  00000+0  53703-3 0  9999
2 69239  53.1589 276.7624 0000960  94.0942 107.8840 15.81937193  3119
STARLINK-37680          
1 69240U 26117C   26161.58335648  .00122643  00000+0  58675-3 0  9997
2 69240  53.1590 276.7449 0001136  65.4824 144.7013 15.81929835  3100
STARLINK-37742          
1 69241U 26117D   26161.58335648  .00116602  00000+0  55847-3 0  9994
2 69241  53.1593 276.7244 0001009  82.3239 138.0279 15.81927258  3112
STARLINK-37718          
1 69242U 26117E   26161.58335648  .00137793  00000+0  65800-3 0  9999
2 69242  53.1594 276.7094 0001082  98.3661 129.0218 15.81918598  3103
STARLINK-37735          
1 69243U 26117F   26161.58335648  .00099518  00000+0  47784-3 0  9993
2 69243  53.1592 276.7080 0001150  70.1843 157.8046 15.81938206  3110
STARLINK-37757          
1 69244U 26117G   26161.58335648  .00052242  00000+0  25371-3 0  9995
2 69244  53.1591 276.6800 0000887  50.9794 190.6556 15.81949503  3119
STARLINK-37767          
1 69245U 26117H   26161.58335648  .00090623  00000+0  43592-3 0  9996
2 69245  53.1587 276.6289 0001206  80.0463 185.8953 15.81936360  3113
STARLINK-35759          
1 69246U 26117J   26161.58335648  .00008148  00000+0  42543-4 0  9994
2 69246  53.1588 276.6209 0001023  77.4810 192.3030 15.82010314  3167
STARLINK-37238          
1 69247U 26117K   26161.58335648  .00093931  00000+0  45153-3 0  9998
2 69247  53.1585 276.5678 0001140  68.4306 226.7217 15.81936590  3110
STARLINK-37412          
1 69248U 26117L   26161.58335648  .00115472  00000+0  55322-3 0  9993
2 69248  53.1585 276.5283 0001146  96.3821 217.9752 15.81924906  3182
STARLINK-37398          
1 69249U 26117M   26161.58335648 -.00088743  00000+0 -44962-3 0  9994
2 69249  53.1591 276.5241 0000908  71.6638 244.6209 15.80925002  3182
STARLINK-37499          
1 69250U 26117N   26161.58335648  .00078239  00000+0  37730-3 0  9998
2 69250  53.1586 276.5074 0001109  74.4515 249.6890 15.81939799  3181
STARLINK-37489          
1 69251U 26117P   26161.58335648  .00070764  00000+0  34171-3 0  9990
2 69251  53.1590 276.4867 0000532  68.5566 265.6032 15.81949903  3189
STARLINK-37434          
1 69252U 26117Q   26161.58335648  .00030318  00000+0  14894-3 0  9992
2 69252  53.1588 276.4512 0001123  72.8981 278.1919 15.81964567  3119
STARLINK-37368          
1 69253U 26117R   26161.58335648 -.00007481  00000+0 -32587-4 0  9990
2 69253  53.1587 276.3716 0000777  43.7491 345.7518 15.81996204  3187
STARLINK-37517          
1 69254U 26117S   26161.58335648  .00072068  00000+0  34760-3 0  9996
2 69254  53.1585 276.3563 0001262  62.6798 334.3442 15.81967514  3188
STARLINK-37378          
1 69255U 26117T   26161.58335648  .00016032  00000+0  80386-4 0  9992
2 69255  53.1588 276.3524 0000767  44.5763 354.3246 15.81994443  3106
STARLINK-37396          
1 69256U 26117U   26161.58335648  .00032470  00000+0  15913-3 0  9990
2 69256  53.1581 276.3225 0000764  54.2827 358.5945 15.81977169  3180
STARLINK-37508          
1 69257U 26117V   26161.58335648 -.01699994  00000+0 -92678-2 0  9996
2 69257  53.1580 276.2945 0000775  76.1275 350.0256 15.82374108  3109
STARLINK-37276          
1 69258U 26117W   26161.58335648 -.00501010  00000+0 -18564-2 0  9999
2 69258  53.1551 276.0577 0001311  64.8331 115.2125 15.88516453  3104
STARLINK-37518          
1 69259U 26117X   26161.58335648 -.01803808  00000+0 -73458-2 0  9994
2 69259  53.1550 276.0440 0001065  67.0223 120.0441 15.88513364  3118
